[{"OBJECT_NAME":"SAPPHIRE","OBJECT_ID":"2013-009C","EPOCH":"2026-03-09T22:57:28.647648","MEAN_MOTION":14.35209243,"ECCENTRICITY":0.00112275,"INCLINATION":98.4222,"RA_OF_ASC_NODE":250.7769,"ARG_OF_PERICENTER":178.7646,"MEAN_ANOMALY":181.357,"EPHEMERIS_TYPE":0,"CLASSIFICATION_TYPE":"U","NORAD_CAT_ID":39088,"ELEMENT_SET_NO":999,"REV_AT_EPOCH":68234,"BSTAR":9.3997997e-5,"MEAN_MOTION_DOT":2.26e-6,"MEAN_MOTION_DDOT":0},{"OBJECT_NAME":"ARIANE 1 R\/B","OBJECT_ID":"1986-019C","EPOCH":"2026-03-09T21:53:32.806464","MEAN_MOTION":14.33292762,"ECCENTRICITY":0.00107515,"INCLINATION":98.223,"RA_OF_ASC_NODE":86.5227,"ARG_OF_PERICENTER":323.0656,"MEAN_ANOMALY":103.1338,"EPHEMERIS_TYPE":0,"CLASSIFICATION_TYPE":"U","NORAD_CAT_ID":16615,"ELEMENT_SET_NO":999,"REV_AT_EPOCH":9566,"BSTAR":0.0001381606,"MEAN_MOTION_DOT":3.4e-6,"MEAN_MOTION_DDOT":0}]
